CORVUS BC1              
1 42847U 17042Y   18203.73071292  .00000234  00000-0  28436-4 0  9990
2 42847  97.5941 105.3709 0010887  79.3065 280.9379 14.91933395 55668
SILU-1 (SILKROAD 1)     
1 42903U 17021F   18203.78756159  .00022911  00000-0  16343-3 0  9996
2 42903  42.7774 112.3138 0013022 199.7913 259.2437 15.73210952 55532
MIRATA                  
1 43015U 17073C   18203.76333255  .00000700  00000-0  60390-4 0  9998
2 43015  97.7042 133.2909 0258432 155.3887 205.9919 14.78190834 36393
MAKERSAT 0              
1 43016U 17073D   18203.74807320  .00000453  00000-0  40737-4 0  9994
2 43016  97.7069 133.4061 0259890 155.5110 205.8710 14.78186880 36398
ASTERIA                 
1 43020U 98067NH  18203.89716105  .00005970  00000-0  78693-4 0  9998
2 43020  51.6402 194.8548 0002136 325.8858  34.1998 15.59981115 38065
DELLINGR (RBLE)         
1 43021U 98067NJ  18203.79890416  .00005914  00000-0  84030-4 0  9996
2 43021  51.6384 197.1660 0001888 314.2431  45.8406 15.57963634 38021
OSIRIS-3U               
1 43027U 98067NL  18203.96711616  .00027814  00000-0  26898-3 0  9995
2 43027  51.6356 189.2642 0002402 325.5969  34.4871 15.66202418 38028
AEROCUBE 7B             
1 43042U 17071F   18203.90009329  .00000419  00000-0  20859-4 0  9997
2 43042  51.6380 227.5085 0005436  36.9510 323.1848 15.39067090 35107
AEROCUBE 7C             
1 43043U 17071G   18203.90003913  .00002105  00000-0  63701-4 0  9998
2 43043  51.6382 227.5133 0005571  39.3715 320.7673 15.39056108 35071
CHEFSAT                 
1 43044U 17071H   18203.88668490  .00003043  00000-0  84763-4 0  9996
2 43044  51.6390 226.7000 0005537  37.0561 323.0805 15.40079242 35081
ASGARDIA 1              
1 43049U 17071N   18203.55312388  .00002446  00000-0  72064-4 0  9994
2 43049  51.6384 228.9541 0003086  57.4540 302.6742 15.39182978 35029
ISARA                   
1 43050U 17071P   18203.89248389  .00003620  00000-0  99499-4 0  9998
2 43050  51.6380 226.7329 0002991  53.1381 306.9877 15.39895599 35089
FAUNA                   
1 43052U 17071R   18203.47353190  .00002561  00000-0  74652-4 0  9998
2 43052  51.6384 229.1819 0002978  54.2983 305.8278 15.39325674 35008
CORVUS BC3              
1 43118U 18004H   18203.90066557  .00000705  00000-0  33695-4 0  9994
2 43118  97.5307 266.5576 0009875 338.7726  21.3099 15.22306119 29142
MICROMAS-2A             
1 43131U 18004W   18203.84705983  .00001566  00000-0  69793-4 0  9999
2 43131  97.5317 266.6450 0009066 343.0340  17.0592 15.22924081 29147
GOMX4-B                 
1 43196U 18015E   18203.87067333  .00000723  00000-0  32942-4 0  9995
2 43196  97.3497 332.0728 0020245  35.6118 324.6464 15.23683212 25960
GOMX4-A                 
1 43197U 18015F   18203.95412253  .00000400  00000-0  19504-4 0  9991
2 43197  97.3512 332.1611 0020493  36.4085  81.4090 15.23694735 25985
UBAKUSAT                
1 43466U 98067NP  18203.43275986  .00010221  00000-0  14915-3 0  9990
2 43466  51.6383 202.2149 0000582  37.4990 322.6042 15.56310755 11186
1KUNS-PF                
1 43467U 98067NQ  18203.88584445  .00006622  00000-0  99940-4 0  9995
2 43467  51.6385 199.9930 0001944 274.4328  85.6442 15.56073811 11268
BATSU-CS1 (IRAZU)       
1 43468U 98067NR  18203.42603340  .00012374  00000-0  17740-3 0  9990
2 43468  51.6381 202.1701 0000700  44.9718 315.1330 15.56567759111177
